[{"OBJECT_NAME":"STARLINK-5514","OBJECT_ID":"2023-094AG","EPOCH":"2026-03-08T06:31:38.589888","MEAN_MOTION":15.0323455,"ECCENTRICITY":0.00014603,"INCLINATION":43.0028,"RA_OF_ASC_NODE":25.2858,"ARG_OF_PERICENTER":263.6368,"MEAN_ANOMALY":96.4308,"EPHEMERIS_TYPE":0,"CLASSIFICATION_TYPE":"U","NORAD_CAT_ID":57248,"ELEMENT_SET_NO":999,"REV_AT_EPOCH":14705,"BSTAR":0.0063384834,"MEAN_MOTION_DOT":0.00088125,"MEAN_MOTION_DDOT":0},{"OBJECT_NAME":"CZ-6A DEB","OBJECT_ID":"2024-140AAU","EPOCH":"2026-03-09T16:48:50.985504","MEAN_MOTION":14.99127941,"ECCENTRICITY":0.00591225,"INCLINATION":89.196,"RA_OF_ASC_NODE":296.0099,"ARG_OF_PERICENTER":104.8686,"MEAN_ANOMALY":255.9106,"EPHEMERIS_TYPE":0,"CLASSIFICATION_TYPE":"U","NORAD_CAT_ID":61486,"ELEMENT_SET_NO":999,"REV_AT_EPOCH":8015,"BSTAR":0.0049724997,"MEAN_MOTION_DOT":0.00063139,"MEAN_MOTION_DDOT":0}]
